[{"OBJECT_NAME":"KUIPER-00051","OBJECT_ID":"2025-134M","EPOCH":"2026-03-09T14:55:00.456384","MEAN_MOTION":14.83775882,"ECCENTRICITY":6.43e-5,"INCLINATION":51.9006,"RA_OF_ASC_NODE":226.0794,"ARG_OF_PERICENTER":101.5972,"MEAN_ANOMALY":258.5064,"EPHEMERIS_TYPE":0,"CLASSIFICATION_TYPE":"U","NORAD_CAT_ID":64511,"ELEMENT_SET_NO":999,"REV_AT_EPOCH":4016,"BSTAR":0.00067322,"MEAN_MOTION_DOT":5.404e-5,"MEAN_MOTION_DDOT":0},{"OBJECT_NAME":"PSLV DEB","OBJECT_ID":"2001-049ND","EPOCH":"2026-03-09T00:18:30.786048","MEAN_MOTION":14.86467643,"ECCENTRICITY":0.00493832,"INCLINATION":98.2994,"RA_OF_ASC_NODE":96.4725,"ARG_OF_PERICENTER":253.7762,"MEAN_ANOMALY":105.8016,"EPHEMERIS_TYPE":0,"CLASSIFICATION_TYPE":"U","NORAD_CAT_ID":27585,"ELEMENT_SET_NO":999,"REV_AT_EPOCH":28713,"BSTAR":0.00037332786,"MEAN_MOTION_DOT":3.311e-5,"MEAN_MOTION_DDOT":0}]
